[{"OBJECT_NAME":"GLOBAL-18","OBJECT_ID":"2022-034B","EPOCH":"2026-03-09T23:26:05.160768","MEAN_MOTION":15.42149859,"ECCENTRICITY":0.00026358,"INCLINATION":52.9845,"RA_OF_ASC_NODE":9.3468,"ARG_OF_PERICENTER":330.2135,"MEAN_ANOMALY":29.8718,"EPHEMERIS_TYPE":0,"CLASSIFICATION_TYPE":"U","NORAD_CAT_ID":52196,"ELEMENT_SET_NO":999,"REV_AT_EPOCH":22163,"BSTAR":0.00062119712,"MEAN_MOTION_DOT":0.0002671,"MEAN_MOTION_DDOT":0},{"OBJECT_NAME":"ORBASTRO-PC-1","OBJECT_ID":"2023-174C","EPOCH":"2026-03-09T22:26:50.165376","MEAN_MOTION":15.43995448,"ECCENTRICITY":0.00075959,"INCLINATION":97.381,"RA_OF_ASC_NODE":153.1706,"ARG_OF_PERICENTER":162.4702,"MEAN_ANOMALY":197.681,"EPHEMERIS_TYPE":0,"CLASSIFICATION_TYPE":"U","NORAD_CAT_ID":58258,"ELEMENT_SET_NO":999,"REV_AT_EPOCH":13013,"BSTAR":0.00060269978,"MEAN_MOTION_DOT":0.00027464,"MEAN_MOTION_DDOT":0}]
